57512,STARLINK-30157,2025-12-13T15:58:45.915744,2025-12-14T13:04:14.456627,43.005,98.7597,0.0001571,271.2228,88.8434,15.02536587,12546-4,13102,1 57512U 23113T   25347.66580921 -.00000034  00000+0  12546-4 0  9997,2 57512  43.0050  98.7597 0001571 271.2228  88.8434 15.02536587131021
57513,STARLINK-30168,2025-12-13T15:48:31.736160,2025-12-14T13:04:14.456627,43.0033,125.2267,0.000168,278.2084,81.8567,15.02529434,-25489-4,13055,1 57513U 23113U   25347.65870065 -.00000548  00000+0 -25489-4 0  9999,2 57513  43.0033 125.2267 0001680 278.2084  81.8567 15.02529434130551
57514,STARLINK-30231,2025-12-13T09:01:39.506880,2025-12-14T13:04:14.456627,43.0036,126.5639,0.00013,269.9615,90.1079,15.02534121,83734-4,13067,1 57514U 23113V   25347.37615170  .00000928  00000+0  83734-4 0  9990,2 57514  43.0036 126.5639 0001300 269.9615  90.1079 15.02534121130671
57515,STARLINK-30081,2025-12-13T16:41:07.290528,2025-12-14T13:04:14.456627,43.0028,124.6815,0.0001775,275.7325,84.3315,15.0252734,-10174-3,13072,1 57515U 23113W   25347.69522327 -.00001577  00000+0 -10174-3 0  9997,2 57515  43.0028 124.6815 0001775 275.7325  84.3315 15.02527340130726
57516,STARLINK-30149,2025-12-13T18:02:27.484800,2025-12-14T13:04:14.456627,43.0031,124.2388,0.0001347,272.9685,87.1004,15.0252937,12892-3,13063,1 57516U 23113X   25347.75170700  .00001538  00000+0  12892-3 0  9993,2 57516  43.0031 124.2388 0001347 272.9685  87.1004 15.02529370130636
57521,STARLINK-30259,2025-12-13T18:02:58.589664,2025-12-14T13:04:14.456627,43.0039,111.9891,0.0001596,276.8864,83.1797,15.0253606,38300-4,13060,1 57521U 23115A   25347.75206701  .00000314  00000+0  38300-4 0  9996,2 57521  43.0039 111.9891 0001596 276.8864  83.1797 15.02536060130606
57522,STARLINK-30256,2025-12-13T14:46:43.426560,2025-12-14T13:04:14.456627,43.0031,112.6849,0.0001904,275.9833,84.0792,15.02538541,85648-4,12936,1 57522U 23115B   25347.61578040  .00000953  00000+0  85648-4 0  9996,2 57522  43.0031 112.6849 0001904 275.9833  84.0792 15.02538541129361
57523,STARLINK-30261,2025-12-13T16:17:39.723936,2025-12-14T13:04:14.456627,43.0032,112.2985,0.0001342,267.5454,92.5235,15.02533145,70505-4,12937,1 57523U 23115C   25347.67893199  .00000749  00000+0  70505-4 0  9997,2 57523  43.0032 112.2985 0001342 267.5454  92.5235 15.02533145129374
57524,STARLINK-30260,2025-12-13T17:48:37.563552,2025-12-14T13:04:14.456627,43.0025,111.9327,0.0001624,270.8697,89.1959,15.0253036,-12006-3,12938,1 57524U 23115D   25347.74210143 -.00001825  00000+0 -12006-3 0  9997,2 57524  43.0025 111.9327 0001624 270.8697  89.1959 15.02530360129384
57525,STARLINK-30253,2025-12-13T17:34:12.643392,2025-12-14T13:04:14.456627,43.0025,111.8426,0.0001359,272.738,87.3306,15.02533383,78517-4,12938,1 57525U 23115E   25347.73209078  .00000857  00000+0  78517-4 0  9994,2 57525  43.0025 111.8426 0001359 272.7380  87.3306 15.02533383129383
57526,STARLINK-30257,2025-12-13T08:04:39.013824,2025-12-14T13:04:14.456627,43.003,114.0604,0.000124,265.4032,94.6669,15.0254666,11284-3,12932,1 57526U 23115F   25347.33656266  .00001321  00000+0  11284-3 0  9990,2 57526  43.0030 114.0604 0001240 265.4032  94.6669 15.02546660129324
57527,STARLINK-30250,2025-12-13T15:53:41.231328,2025-12-14T13:04:14.456627,43.0011,112.176,0.0001284,277.4179,82.6518,15.02554233,15633-3,13027,1 57527U 23115G   25347.66228277  .00001910  00000+0  15633-3 0  9990,2 57527  43.0011 112.1760 0001284 277.4179  82.6518 15.02554233130270
57528,STARLINK-30269,2025-12-13T17:10:14.664864,2025-12-14T13:04:14.456627,43.0007,111.7422,0.0002044,271.5992,88.4616,15.02550957,26361-3,12938,1 57528U 23115H   25347.71544751  .00003360  00000+0  26361-3 0  9996,2 57528  43.0007 111.7422 0002044 271.5992  88.4616 15.02550957129381
57529,STARLINK-30266,2025-12-13T16:55:50.911968,2025-12-14T13:04:14.456627,43.0021,111.6475,0.0001604,270.8531,89.2128,15.02534907,10152-3,12938,1 57529U 23115J   25347.70545037  .00001168  00000+0  10152-3 0  9999,2 57529  43.0021 111.6475 0001604 270.8531  89.2128 15.02534907129381
57530,STARLINK-30270,2025-12-13T17:05:27.187872,2025-12-14T13:04:14.456627,43.0025,111.71,0.0001493,275.7696,84.2976,15.02544788,55007-4,12938,1 57530U 23115K   25347.71212023  .00000540  00000+0  55007-4 0  9990,2 57530  43.0025 111.7100 0001493 275.7696  84.2976 15.02544788129389
57531,STARLINK-30268,2025-12-13T17:24:37.385280,2025-12-14T13:04:14.456627,43.0037,111.8094,0.0001342,266.4433,93.6256,15.025322,11636-3,12938,1 57531U 23115L   25347.72543270  .00001368  00000+0  11636-3 0  9991,2 57531  43.0037 111.8094 0001342 266.4433  93.6256 15.02532200129386
57532,STARLINK-30251,2025-12-13T17:16:37.296768,2025-12-14T13:04:14.456627,43.0034,111.7553,0.0001369,278.7439,81.3248,15.02540622,14039-3,12938,1 57532U 23115M   25347.71987612  .00001693  00000+0  14039-3 0  9994,2 57532  43.0034 111.7553 0001369 278.7439  81.3248 15.02540622129386
57533,STARLINK-30254,2025-12-13T17:31:24.851136,2025-12-14T13:04:14.456627,43.0022,228.6183,9.91e-05,280.1105,79.9635,15.27582448,10913-4,13221,1 57533U 23115N   25347.73014874  .00000038  00000+0  10913-4 0  9998,2 57533  43.0022 228.6183 0000991 280.1105  79.9635 15.27582448132216
57534,STARLINK-30264,2025-12-13T16:28:14.795904,2025-12-14T13:04:14.456627,43.0083,334.5975,0.0002287,279.0985,80.9608,15.27577532,29478-3,13220,1 57534U 23115P   25347.68628236  .00007857  00000+0  29478-3 0  9997,2 57534  43.0083 334.5975 0002287 279.0985  80.9608 15.27577532132202
57602,STARLINK-30166,2025-12-13T21:07:12.938304,2025-12-14T13:04:14.456627,43.0031,188.2438,0.0001362,258.2107,101.8582,15.02535599,29513-4,13011,1 57602U 23119A   25347.88001086  .00000195  00000+0  29513-4 0  9996,2 57602  43.0031 188.2438 0001362 258.2107 101.8582 15.02535599130119
57603,STARLINK-30223,2025-12-13T22:14:10.581504,2025-12-14T13:04:14.456627,43.0022,187.7229,9.71e-05,261.8334,98.2398,15.02532948,80252-4,13017,1 57603U 23119B   25347.92651136  .00000881  00000+0  80252-4 0  9998,2 57603  43.0022 187.7229 0000971 261.8334  98.2398 15.02532948130174
57604,STARLINK-30218,2025-12-13T20:48:02.200896,2025-12-14T13:04:14.456627,43.0015,188.1416,0.0001221,266.7137,93.3565,15.02534441,40401-4,13017,1 57604U 23119C   25347.86669214  .00000342  00000+0  40401-4 0  9992,2 57604  43.0015 188.1416 0001221 266.7137  93.3565 15.02534441130176
57605,STARLINK-30138,2025-12-13T20:43:14.513952,2025-12-14T13:04:14.456627,43.0024,188.1197,0.0001134,264.65,95.4213,15.02534578,39684-4,13017,1 57605U 23119D   25347.86336243  .00000333  00000+0  39684-4 0  9997,2 57605  43.0024 188.1197 0001134 264.6500  95.4213 15.02534578130171
57606,STARLINK-30255,2025-12-13T20:06:29.445120,2025-12-14T13:04:14.456627,43.0025,187.925,0.0001031,267.5397,92.5327,15.02515472,29832-3,13017,1 57606U 23119E   25347.83784080  .00003826  00000+0  29832-3 0  9994,2 57606  43.0025 187.9250 0001031 267.5397  92.5327 15.02515472130178
57607,STARLINK-30252,2025-12-13T20:58:03.053280,2025-12-14T13:04:14.456627,43.0015,175.4554,0.0001372,254.8404,105.2287,15.02534957,38978-4,13032,1 57607U 23119F   25347.87364645  .00000323  00000+0  38978-4 0  9991,2 57607  43.0015 175.4554 0001372 254.8404 105.2287 15.02534957130326
57608,STARLINK-30258,2025-12-13T22:06:11.357856,2025-12-14T13:04:14.456627,43.0032,187.688,0.0001103,269.653,90.4186,15.02533379,10319-3,13018,1 57608U 23119G   25347.92096479  .00001190  00000+0  10319-3 0  9996,2 57608  43.0032 187.6880 0001103 269.6530  90.4186 15.02533379130183
57609,STARLINK-30174,2025-12-13T20:19:16.446432,2025-12-14T13:04:14.456627,43.0025,187.9896,8.66e-05,249.8261,110.2489,15.02533697,31506-4,13017,1 57609U 23119H   25347.84671813  .00000222  00000+0  31506-4 0  9996,2 57609  43.0025 187.9896 0000866 249.8261 110.2489 15.02533697130171
57610,STARLINK-30248,2025-12-13T21:59:47.770368,2025-12-14T13:04:14.456627,43.0008,187.6557,0.0001086,239.7257,120.3478,15.02534397,11033-3,13018,1 57610U 23119J   25347.91652512  .00001287  00000+0  11033-3 0  9995,2 57610  43.0008 187.6557 0001086 239.7257 120.3478 15.02534397130182
57611,STARLINK-30052,2025-12-13T21:50:12.699744,2025-12-14T13:04:14.456627,43.0046,187.6048,0.0001664,275.9507,84.1145,15.0251916,31445-4,13016,1 57611U 23119K   25347.90986921  .00000221  00000+0  31445-4 0  9996,2 57611  43.0046 187.6048 0001664 275.9507  84.1145 15.02519160130169
57612,STARLINK-30245,2025-12-13T23:21:07.949952,2025-12-14T13:04:14.456627,43.0015,187.2181,0.0001061,263.5957,96.4764,15.02536592,55898-4,13019,1 57612U 23119L   25347.97300868  .00000552  00000+0  55898-4 0  9999,2 57612  43.0015 187.2181 0001061 263.5957  96.4764 15.02536592130197
57613,STARLINK-30041,2025-12-13T20:04:53.476320,2025-12-14T13:04:14.456627,43.0014,187.9136,0.0001155,266.8001,93.2709,15.02530342,32716-4,13017,1 57613U 23119M   25347.83673005  .00000238  00000+0  32716-4 0  9996,2 57613  43.0014 187.9136 0001155 266.8001  93.2709 15.02530342130173
57614,STARLINK-30244,2025-12-13T20:00:05.357376,2025-12-14T13:04:14.456627,43.0022,187.894,0.0001286,265.9177,94.1519,15.02535255,-34946-4,13017,1 57614U 23119N   25347.83339534 -.00000676  00000+0 -34946-4 0  9998,2 57614  43.0022 187.8940 0001286 265.9177  94.1519 15.02535255130171
57615,STARLINK-30246,2025-12-13T21:31:01.175232,2025-12-14T13:04:14.456627,43.003,187.4918,0.0001243,265.9152,94.1548,15.0253174,42597-4,13018,1 57615U 23119P   25347.89654138  .00000372  00000+0  42597-4 0  9997,2 57615  43.0030 187.4918 0001243 265.9152  94.1548 15.02531740130186
57616,STARLINK-30075,2025-12-13T21:26:23.715456,2025-12-14T13:04:14.456627,43.0024,188.3434,0.0001184,262.8538,97.2169,15.0253461,48936-4,13017,1 57616U 23119Q   25347.89333004  .00000457  00000+0  48936-4 0  9991,2 57616  43.0024 188.3434 0001184 262.8538  97.2169 15.02534610130172
57617,STARLINK-30148,2025-12-13T14:58:42.668544,2025-12-14T13:04:14.456627,43.0018,189.7655,0.0001044,255.9772,104.0955,15.02532848,91445-4,13013,1 57617U 23119R   25347.62410496  .00001032  00000+0  91445-4 0  9997,2 57617  43.0018 189.7655 0001044 255.9772 104.0955 15.02532848130131
